{
  "type": "FeatureCollection",
  "features": [
    {
      "type": "Feature",
      "properties": {
        "norad_id": 36279,
        "name": "FENGYUN 1C DEB",
        "group": "fengyun-1c-debris",
        "lat": -39.94796757967469,
        "lon": -34.327194971414656,
        "alt_km": 867.8337553505025,
        "timestamp": "2025-12-06T03:35:02.159978+00:00",
        "meta_object_name": "FENGYUN 1C DEB",
        "meta_object_id": "1999-025DXG",
        "meta_epoch": "2025-11-25T16:33:32.008320",
        "meta_mean_motion": 14.14714647,
        "meta_eccentricity": 0.00629921,
        "meta_inclination": 98.56,
        "meta_ra_of_asc_node": 308.3956,
        "meta_arg_of_pericenter": 103.3746,
        "meta_mean_anomaly": 257.4461,
        "meta_ephemeris_type": 0,
        "meta_classification_type": "U",
        "meta_norad_cat_id": 36279,
        "meta_element_set_no": 999,
        "meta_rev_at_epoch": 88798,
        "meta_bstar": 0.00016006279,
        "meta_mean_motion_dot": 2.73e-06,
        "meta_mean_motion_ddot": 0,
        "tle_line1": "1 36279U 99025DXG 25329.68995380  .00000273  00000+0  16006-3 0  9998",
        "tle_line2": "2 36279  98.5600 308.3956 0062992 103.3746 257.4461 14.14714647887981"
      },
      "geometry": {
        "type": "Point",
        "coordinates": [
          -34.327194971414656,
          -39.94796757967469
        ]
      }
    },
    {
      "type": "Feature",
      "properties": {
        "norad_id": 36280,
        "name": "FENGYUN 1C DEB",
        "group": "fengyun-1c-debris",
        "lat": 61.480480642064165,
        "lon": -154.1852111781216,
        "alt_km": 815.7417962261452,
        "timestamp": "2025-12-06T03:35:02.159989+00:00",
        "meta_object_name": "FENGYUN 1C DEB",
        "meta_object_id": "1999-025DXH",
        "meta_epoch": "2025-12-02T19:47:23.057952",
        "meta_mean_motion": 14.09689517,
        "meta_eccentricity": 0.00636593,
        "meta_inclination": 98.7683,
        "meta_ra_of_asc_node": 6.0758,
        "meta_arg_of_pericenter": 93.3379,
        "meta_mean_anomaly": 80.0221,
        "meta_ephemeris_type": 0,
        "meta_classification_type": "U",
        "meta_norad_cat_id": 36280,
        "meta_element_set_no": 999,
        "meta_rev_at_epoch": 86214,
        "meta_bstar": 0.0011452484,
        "meta_mean_motion_dot": 2.005e-05,
        "meta_mean_motion_ddot": 0,
        "tle_line1": "1 36280U 99025DXH 25336.82457243  .00002005  00000+0  11452-2 0  9999",
        "tle_line2": "2 36280  98.7683   6.0758 0063659  93.3379  80.0221 14.09689517862145"
      },
      "geometry": {
        "type": "Point",
        "coordinates": [
          -154.1852111781216,
          61.480480642064165
        ]
      }
    },
    {
      "type": "Feature",
      "properties": {
        "norad_id": 36281,
        "name": "FENGYUN 1C DEB",
        "group": "fengyun-1c-debris",
        "lat": 27.944161775770148,
        "lon": 87.40359788066529,
        "alt_km": 836.273699144509,
        "timestamp": "2025-12-06T03:35:02.159999+00:00",
        "meta_object_name": "FENGYUN 1C DEB",
        "meta_object_id": "1999-025DXJ",
        "meta_epoch": "2025-12-04T01:25:44.193792",
        "meta_mean_motion": 13.60182832,
        "meta_eccentricity": 0.02890068,
        "meta_inclination": 99.2582,
        "meta_ra_of_asc_node": 260.4605,
        "meta_arg_of_pericenter": 133.3469,
        "meta_mean_anomaly": 229.215,
        "meta_ephemeris_type": 0,
        "meta_classification_type": "U",
        "meta_norad_cat_id": 36281,
        "meta_element_set_no": 999,
        "meta_rev_at_epoch": 84399,
        "meta_bstar": 0.0042126195,
        "meta_mean_motion_dot": 4.117e-05,
        "meta_mean_motion_ddot": 0,
        "tle_line1": "1 36281U 99025DXJ 25338.05953928  .00004117  00000+0  42126-2 0  9996",
        "tle_line2": "2 36281  99.2582 260.4605 0289006 133.3469 229.2150 13.60182832843992"
      },
      "geometry": {
        "type": "Point",
        "coordinates": [
          87.40359788066529,
          27.944161775770148
        ]
      }
    },
    {
      "type": "Feature",
      "properties": {
        "norad_id": 36283,
        "name": "FENGYUN 1C DEB",
        "group": "fengyun-1c-debris",
        "lat": 52.756225741309436,
        "lon": 136.40870179162224,
        "alt_km": 518.0570836308834,
        "timestamp": "2025-12-06T03:35:02.160010+00:00",
        "meta_object_name": "FENGYUN 1C DEB",
        "meta_object_id": "1999-025DXL",
        "meta_epoch": "2025-11-28T03:35:45.168576",
        "meta_mean_motion": 15.05092252,
        "meta_eccentricity": 0.00695379,
        "meta_inclination": 99.4205,
        "meta_ra_of_asc_node": 294.0447,
        "meta_arg_of_pericenter": 95.6406,
        "meta_mean_anomaly": 265.275,
        "meta_ephemeris_type": 0,
        "meta_classification_type": "U",
        "meta_norad_cat_id": 36283,
        "meta_element_set_no": 999,
        "meta_rev_at_epoch": 66446,
        "meta_bstar": 0.0018499593,
        "meta_mean_motion_dot": 0.00027782,
        "meta_mean_motion_ddot": 0,
        "tle_line1": "1 36283U 99025DXL 25332.14982834  .00027782  00000+0  18500-2 0  9992",
        "tle_line2": "2 36283  99.4205 294.0447 0069537  95.6406 265.2750 15.05092252664467"
      },
      "geometry": {
        "type": "Point",
        "coordinates": [
          136.40870179162224,
          52.756225741309436
        ]
      }
    },
    {
      "type": "Feature",
      "properties": {
        "norad_id": 36644,
        "name": "FENGYUN 1C DEB",
        "group": "fengyun-1c-debris",
        "lat": 2.368219326980243,
        "lon": 119.30893721894883,
        "alt_km": 1245.7850457518634,
        "timestamp": "2025-12-06T03:35:02.160020+00:00",
        "meta_object_name": "FENGYUN 1C DEB",
        "meta_object_id": "1999-025DXN",
        "meta_epoch": "2025-11-26T15:39:07.759296",
        "meta_mean_motion": 13.59124847,
        "meta_eccentricity": 0.02860442,
        "meta_inclination": 98.4214,
        "meta_ra_of_asc_node": 111.4857,
        "meta_arg_of_pericenter": 222.436,
        "meta_mean_anomaly": 135.4347,
        "meta_ephemeris_type": 0,
        "meta_classification_type": "U",
        "meta_norad_cat_id": 36644,
        "meta_element_set_no": 999,
        "meta_rev_at_epoch": 61349,
        "meta_bstar": 0.0017692716,
        "meta_mean_motion_dot": 1.666e-05,
        "meta_mean_motion_ddot": 0,
        "tle_line1": "1 36644U 99025DXN 25330.65217314  .00001666  00000+0  17693-2 0  9996",
        "tle_line2": "2 36644  98.4214 111.4857 0286044 222.4360 135.4347 13.59124847613497"
      },
      "geometry": {
        "type": "Point",
        "coordinates": [
          119.30893721894883,
          2.368219326980243
        ]
      }
    },
    {
      "type": "Feature",
      "properties": {
        "norad_id": 36647,
        "name": "FENGYUN 1C DEB",
        "group": "fengyun-1c-debris",
        "lat": 2.0851124095312596,
        "lon": -56.69499864324925,
        "alt_km": 1070.5263164043236,
        "timestamp": "2025-12-06T03:35:02.160031+00:00",
        "meta_object_name": "FENGYUN 1C DEB",
        "meta_object_id": "1999-025DXR",
        "meta_epoch": "2025-12-03T15:55:19.418880",
        "meta_mean_motion": 13.88719058,
        "meta_eccentricity": 0.02386151,
        "meta_inclination": 96.1217,
        "meta_ra_of_asc_node": 121.4438,
        "meta_arg_of_pericenter": 326.4952,
        "meta_mean_anomaly": 32.131,
        "meta_ephemeris_type": 0,
        "meta_classification_type": "U",
        "meta_norad_cat_id": 36647,
        "meta_element_set_no": 999,
        "meta_rev_at_epoch": 30286,
        "meta_bstar": 0.00299282,
        "meta_mean_motion_dot": 4.507e-05,
        "meta_mean_motion_ddot": 0,
        "tle_line1": "1 36647U 99025DXR 25337.66341920  .00004507  00000+0  29928-2 0  9999",
        "tle_line2": "2 36647  96.1217 121.4438 0238615 326.4952  32.1310 13.88719058302862"
      },
      "geometry": {
        "type": "Point",
        "coordinates": [
          -56.69499864324925,
          2.0851124095312596
        ]
      }
    },
    {
      "type": "Feature",
      "properties": {
        "norad_id": 36652,
        "name": "FENGYUN 1C DEB",
        "group": "fengyun-1c-debris",
        "lat": -79.27957693001572,
        "lon": -174.0533019227454,
        "alt_km": 835.0130837599263,
        "timestamp": "2025-12-06T03:35:02.160042+00:00",
        "meta_object_name": "FENGYUN 1C DEB",
        "meta_object_id": "1999-025DXW",
        "meta_epoch": "2025-12-04T11:31:28.047936",
        "meta_mean_motion": 14.22722775,
        "meta_eccentricity": 0.0050804,
        "meta_inclination": 98.9428,
        "meta_ra_of_asc_node": 60.5285,
        "meta_arg_of_pericenter": 17.6913,
        "meta_mean_anomaly": 342.6019,
        "meta_ephemeris_type": 0,
        "meta_classification_type": "U",
        "meta_norad_cat_id": 36652,
        "meta_element_set_no": 999,
        "meta_rev_at_epoch": 64207,
        "meta_bstar": 0.0036927,
        "meta_mean_motion_dot": 8.346e-05,
        "meta_mean_motion_ddot": 0,
        "tle_line1": "1 36652U 99025DXW 25338.48018574  .00008346  00000+0  36927-2 0  9994",
        "tle_line2": "2 36652  98.9428  60.5285 0050804  17.6913 342.6019 14.22722775642077"
      },
      "geometry": {
        "type": "Point",
        "coordinates": [
          -174.0533019227454,
          -79.27957693001572
        ]
      }
    }
  ]
}